{"type": "FeatureCollection", "features": [ {"type": "Feature", "properties": {"norad_id": 43010, "name": "FENGYUN 3D", "group": "weather", "lat": 41.029194259822305, "lon": 131.90796779439967, "alt_km": 823.049991085034, "timestamp": "2025-12-03T19:33:06.622321+00:00", "meta": {"OBJECT_NAME": "FENGYUN 3D", "OBJECT_ID": "2017-072A", "EPOCH": "2025-12-03T12:08:12.576768", "MEAN_MOTION": 14.19679382, "ECCENTRICITY": 6.03e-05, "INCLINATION": 98.988, "RA_OF_ASC_NODE": 303.6783, "ARG_OF_PERICENTER": 220.3934, "MEAN_ANOMALY": 139.7197, "EPHEMERIS_TYPE": 0, "CLASSIFICATION_TYPE": "U", "NORAD_CAT_ID": 43010, "ELEMENT_SET_NO": 999, "REV_AT_EPOCH": 41722, "BSTAR": 0.00010002, "MEAN_MOTION_DOT": 1.65e-06, "MEAN_MOTION_DDOT": 0}, "tle": {"line1": "1 43010U 17072A   25337.50570112  .00000165  00000+0  10002-3 0  9993", "line2": "2 43010  98.9880 303.6783 0000603 220.3934 139.7197 14.19679382417227"}}, "geometry": {"type": "Point", "coordinates": [131.90796779439967, 41.029194259822305]}}, {"type": "Feature", "properties": {"norad_id": 43013, "name": "NOAA 20 (JPSS-1)", "group": "weather", "lat": -62.8536904197537, "lon": -68.29295492003902, "alt_km": 835.5550779734922, "timestamp": "2025-12-03T19:33:06.622347+00:00", "meta": {"OBJECT_NAME": "NOAA 20 (JPSS-1)", "OBJECT_ID": "2017-073A", "EPOCH": "2025-12-03T11:23:44.168928", "MEAN_MOTION": 14.1952166, "ECCENTRICITY": 0.0002065, "INCLINATION": 98.7585, "RA_OF_ASC_NODE": 273.8735, "ARG_OF_PERICENTER": 100.5461, "MEAN_ANOMALY": 259.5948, "EPHEMERIS_TYPE": 0, "CLASSIFICATION_TYPE": "U", "NORAD_CAT_ID": 43013, "ELEMENT_SET_NO": 999, "REV_AT_EPOCH": 41670, "BSTAR": 8.2448e-05, "MEAN_MOTION_DOT": 1.3e-06, "MEAN_MOTION_DDOT": 0}, "tle": {"line1": "1 43013U 17073A   25337.47481677  .00000130  00000+0  82448-4 0  9996", "line2": "2 43013  98.7585 273.8735 0002065 100.5461 259.5948 14.19521660416705"}}, "geometry": {"type": "Point", "coordinates": [-68.29295492003902, -62.8536904197537]}}, {"type": "Feature", "properties": {"norad_id": 43226, "name": "GOES 17", "group": "weather", "lat": -0.0742346184227875, "lon": -83.34328419586102, "alt_km": 35771.84529689716, "timestamp": "2025-12-03T19:33:06.622366+00:00", "meta": {"OBJECT_NAME": "GOES 17", "OBJECT_ID": "2018-022A", "EPOCH": "2025-12-03T09:54:20.348064", "MEAN_MOTION": 1.00271349, "ECCENTRICITY": 0.000342, "INCLINATION": 0.4337, "RA_OF_ASC_NODE": 89.3258, "ARG_OF_PERICENTER": 181.4475, "MEAN_ANOMALY": 220.8145, "EPHEMERIS_TYPE": 0, "CLASSIFICATION_TYPE": "U", "NORAD_CAT_ID": 43226, "ELEMENT_SET_NO": 999, "REV_AT_EPOCH": 2846, "BSTAR": 0, "MEAN_MOTION_DOT": -1.64e-06, "MEAN_MOTION_DDOT": 0}, "tle": {"line1": "1 43226U 18022A   25337.41273551 -.00000164  00000+0  00000+0 0  9998", "line2": "2 43226   0.4337  89.3258 0003420 181.4475 220.8145  1.00271349 28469"}}, "geometry": {"type": "Point", "coordinates": [-83.34328419586102, -0.0742346184227875]}}, {"type": "Feature", "properties": {"norad_id": 43491, "name": "FENGYUN 2H", "group": "weather", "lat": 0.20231923282243072, "lon": 85.49720946910813, "alt_km": 35797.621694547975, "timestamp": "2025-12-03T19:33:06.622387+00:00", "meta": {"OBJECT_NAME": "FENGYUN 2H", "OBJECT_ID": "2018-050A", "EPOCH": "2025-12-03T10:42:30.732192", "MEAN_MOTION": 1.00271409, "ECCENTRICITY": 0.0002903, "INCLINATION": 2.5249, "RA_OF_ASC_NODE": 81.4326, "ARG_OF_PERICENTER": 162.4814, "MEAN_ANOMALY": 68.6085, "EPHEMERIS_TYPE": 0, "CLASSIFICATION_TYPE": "U", "NORAD_CAT_ID": 43491, "ELEMENT_SET_NO": 999, "REV_AT_EPOCH": 2747, "BSTAR": 0, "MEAN_MOTION_DOT": -1.12e-06, "MEAN_MOTION_DDOT": 0}, "tle": {"line1": "1 43491U 18050A   25337.44618903 -.00000112  00000+0  00000+0 0  9993", "line2": "2 43491   2.5249  81.4326 0002903 162.4814  68.6085  1.00271409 27476"}}, "geometry": {"type": "Point", "coordinates": [85.49720946910813, 0.20231923282243072]}}, {"type": "Feature", "properties": {"norad_id": 43689, "name": "METOP-C", "group": "weather", "lat": 13.142114538877456, "lon": 33.67299428274177, "alt_km": 820.424961057307, "timestamp": "2025-12-03T19:33:06.622405+00:00", "meta": {"OBJECT_NAME": "METOP-C", "OBJECT_ID": "2018-087A", "EPOCH": "2025-12-03T11:02:34.667808", "MEAN_MOTION": 14.21506139, "ECCENTRICITY": 0.0001703, "INCLINATION": 98.6943, "RA_OF_ASC_NODE": 35.3713, "ARG_OF_PERICENTER": 57.4765, "MEAN_ANOMALY": 302.6577, "EPHEMERIS_TYPE": 0, "CLASSIFICATION_TYPE": "U", "NORAD_CAT_ID": 43689, "ELEMENT_SET_NO": 999, "REV_AT_EPOCH": 36702, "BSTAR": 0.00012447, "MEAN_MOTION_DOT": 2.29e-06, "MEAN_MOTION_DDOT": 0}, "tle": {"line1": "1 43689U 18087A   25337.46012347  .00000229  00000+0  12447-3 0  9994", "line2": "2 43689  98.6943  35.3713 0001703  57.4765 302.6577 14.21506139367028"}}, "geometry": {"type": "Point", "coordinates": [33.67299428274177, 13.142114538877456]}}, {"type": "Feature", "properties": {"norad_id": 43823, "name": "GEO-KOMPSAT-2A", "group": "weather", "lat": 0.027008323774517073, "lon": 134.40581482349737, "alt_km": 35786.33465235971, "timestamp": "2025-12-03T19:33:06.622423+00:00", "meta": {"OBJECT_NAME": "GEO-KOMPSAT-2A", "OBJECT_ID": "2018-100A", "EPOCH": "2025-12-03T10:56:29.392800", "MEAN_MOTION": 1.00269864, "ECCENTRICITY": 5.39e-05, "INCLINATION": 0.0597, "RA_OF_ASC_NODE": 121.7318, "ARG_OF_PERICENTER": 93.8733, "MEAN_ANOMALY": 149.3248, "EPHEMERIS_TYPE": 0, "CLASSIFICATION_TYPE": "U", "NORAD_CAT_ID": 43823, "ELEMENT_SET_NO": 999, "REV_AT_EPOCH": 2566, "BSTAR": 0, "MEAN_MOTION_DOT": -3.25e-06, "MEAN_MOTION_DDOT": 0}, "tle": {"line1": "1 43823U 18100A   25337.45589575 -.00000325  00000+0  00000+0 0  9997", "line2": "2 43823   0.0597 121.7318 0000539  93.8733 149.3248  1.00269864 25662"}}, "geometry": {"type": "Point", "coordinates": [134.40581482349737, 0.027008323774517073]}}, {"type": "Feature", "properties": {"norad_id": 44387, "name": "METEOR-M2 2", "group": "weather", "lat": -2.1529781699677275, "lon": -42.2279661882635, "alt_km": 814.7094306226363, "timestamp": "2025-12-03T19:33:06.622443+00:00", "meta": {"OBJECT_NAME": "METEOR-M2 2", "OBJECT_ID": "2019-038A", "EPOCH": "2025-12-03T12:49:04.899072", "MEAN_MOTION": 14.24285098, "ECCENTRICITY": 8.82e-05, "INCLINATION": 98.8963, "RA_OF_ASC_NODE": 317.1507, "ARG_OF_PERICENTER": 167.3558, "MEAN_ANOMALY": 192.7642, "EPHEMERIS_TYPE": 0, "CLASSIFICATION_TYPE": "U", "NORAD_CAT_ID": 44387, "ELEMENT_SET_NO": 999, "REV_AT_EPOCH": 33344, "BSTAR": 0.00013454, "MEAN_MOTION_DOT": 2.65e-06, "MEAN_MOTION_DDOT": 0}, "tle": {"line1": "1 44387U 19038A   25337.53408448  .00000265  00000+0  13454-3 0  9995", "line2": "2 44387  98.8963 317.1507 0000882 167.3558 192.7642 14.24285098333449"}}, "geometry": {"type": "Point", "coordinates": [-42.2279661882635, -2.1529781699677275]}}, {"type": "Feature", "properties": {"norad_id": 47719, "name": "ARKTIKA-M 1", "group": "weather", "lat": 62.92700864625312, "lon": 166.6853400824589, "alt_km": 39105.10527411814, "timestamp": "2025-12-03T19:33:06.622463+00:00", "meta": {"OBJECT_NAME": "ARKTIKA-M 1", "OBJECT_ID": "2021-016A", "EPOCH": "2025-12-01T02:41:41.634816", "MEAN_MOTION": 2.00613156, "ECCENTRICITY": 0.71974708, "INCLINATION": 63.1756, "RA_OF_ASC_NODE": 85.6045, "ARG_OF_PERICENTER": 269.084, "MEAN_ANOMALY": 15.7076, "EPHEMERIS_TYPE": 0, "CLASSIFICATION_TYPE": "U", "NORAD_CAT_ID": 47719, "ELEMENT_SET_NO": 999, "REV_AT_EPOCH": 3481, "BSTAR": 0, "MEAN_MOTION_DOT": -1.2e-07, "MEAN_MOTION_DDOT": 0}, "tle": {"line1": "1 47719U 21016A   25335.11228744 -.00000012  00000+0  00000+0 0  9997", "line2": "2 47719  63.1756  85.6045 7197470 269.0840  15.7076  2.00613156 34816"}}, "geometry": {"type": "Point", "coordinates": [166.6853400824589, 62.92700864625312]}}, {"type": "Feature", "properties": {"norad_id": 49008, "name": "FENGYUN 3E", "group": "weather", "lat": 77.56985300158787, "lon": -157.24811785797968, "alt_km": 818.8479122504468, "timestamp": "2025-12-03T19:33:06.622482+00:00", "meta": {"OBJECT_NAME": "FENGYUN 3E", "OBJECT_ID": "2021-062A", "EPOCH": "2025-12-03T12:19:23.117664", "MEAN_MOTION": 14.19878009, "ECCENTRICITY": 7.52e-05, "INCLINATION": 98.7476, "RA_OF_ASC_NODE": 338.1441, "ARG_OF_PERICENTER": 324.2352, "MEAN_ANOMALY": 35.8774, "EPHEMERIS_TYPE": 0, "CLASSIFICATION_TYPE": "U", "NORAD_CAT_ID": 49008, "ELEMENT_SET_NO": 999, "REV_AT_EPOCH": 22881, "BSTAR": 4.4101e-05, "MEAN_MOTION_DOT": 5e-07, "MEAN_MOTION_DDOT": 0}, "tle": {"line1": "1 49008U 21062A   25337.51346201  .00000050  00000+0  44101-4 0  9992", "line2": "2 49008  98.7476 338.1441 0000752 324.2352  35.8774 14.19878009228815"}}, "geometry": {"type": "Point", "coordinates": [-157.24811785797968, 77.56985300158787]}}, {"type": "Feature", "properties": {"norad_id": 51850, "name": "GOES 18", "group": "weather", "lat": 0.006746319059855819, "lon": -130.8600880116967, "alt_km": 35784.74159383154, "timestamp": "2025-12-03T19:33:06.622503+00:00", "meta": {"OBJECT_NAME": "GOES 18", "OBJECT_ID": "2022-021A", "EPOCH": "2025-12-03T12:13:38.836128", "MEAN_MOTION": 1.0027044, "ECCENTRICITY": 8.1e-05, "INCLINATION": 0.019, "RA_OF_ASC_NODE": 145.1807, "ARG_OF_PERICENTER": 144.6435, "MEAN_ANOMALY": 189.1828, "EPHEMERIS_TYPE": 0, "CLASSIFICATION_TYPE": "U", "NORAD_CAT_ID": 51850, "ELEMENT_SET_NO": 999, "REV_AT_EPOCH": 463, "BSTAR": 0, "MEAN_MOTION_DOT": 1.15e-06, "MEAN_MOTION_DDOT": 0}, "tle": {"line1": "1 51850U 22021A   25337.50947727  .00000115  00000+0  00000+0 0  9992", "line2": "2 51850   0.0190 145.1807 0000810 144.6435 189.1828  1.00270440  4631"}}, "geometry": {"type": "Point", "coordinates": [-130.8600880116967, 0.006746319059855819]}}]}